# From MPEC 2020-C98
390P/Gibbs,e,18.5591,152.2811,232.3362,5.797305,0.0706098,0.70679771,357.7245,02/19.0/2020,2000,g 12.0,4.0
# From MPEC 2020-AA5
391P/Kowalski,e,21.2760,124.7341,186.5497,4.674613,0.0975182,0.12078507,68.5642,02/19.0/2020,2000,g  8.0,4.0
# From MPEC 2020-C98
392P/LINEAR,e,4.9294,24.8889,71.9963,6.150411,0.0646172,0.68290980,357.2958,02/19.0/2020,2000,g 14.5,4.0
# From MPC118845
393P/Spacewatch-Hill,e,16.7975,36.4207,327.9641,4.782174,0.0942467,0.11994866,11.1803,02/19.0/2020,2000,g 11.0,4.0
# From MPC107687
1I/`Oumuamua,h,09/09.4886/2017,122.6778,24.5997,241.6845,1.199252,0.255240,2000,23.0,2.0
# From MPEC 2020-C98
2I/Borisov,h,12/08.5547/2019,44.0527,308.1482,209.1252,3.356773,2.006564,2000,11.0,4.0
